NORAD_CAT_ID,OBJECT_NAME,OBJECT_TYPE,EPOCH,MEAN_MOTION,ECCENTRICITY,INCLINATION,RA_OF_ASC_NODE,ARG_OF_PERICENTER,MEAN_ANOMALY,BSTAR,MEAN_MOTION_DOT,MEAN_MOTION_DDOT,TLE_LINE0,TLE_LINE1,TLE_LINE2,SEMIMAJOR_AXIS,PERIOD,APOGEE,PERIGEE,DECAYED
50850.0,STARLINK-3312,PAYLOAD,2024-04-17 22:06:05,15.08829552,0.0001218,53.2195,0.1007,94.8284,265.2847,-0.00020755,-3.588e-05,0.0,0 STARLINK-3312,1 50850U 22001AZ  24108.92089918 -.00003588  00000-0 -20755-3 0  9992,2 50850  53.2195   0.1007 0001218  94.8284 265.2847 15.08829552127087,6917.912,95.438,540.62,538.935,0.0
50850.0,STARLINK-3312,PAYLOAD,2024-04-17 23:41:29,15.08824278,0.0001122,53.2183,359.8053,70.4497,289.6617,-0.00031528,-5.3e-05,0.0,0 STARLINK-3312,1 50850U 22001AZ  24108.98714144 -.00005300  00000-0 -31528-3 0  9998,2 50850  53.2183 359.8053 0001122  70.4497 289.6617 15.08824278127837,6917.928,95.439,540.57,539.017,0.0
50850.0,STARLINK-3312,PAYLOAD,2024-04-18 21:56:53,15.08831909,0.0001363,53.2192,355.6439,53.1399,306.9718,0.00011873,1.602e-05,0.0,0 STARLINK-3312,1 50850U 22001AZ  24109.91451156  .00001602  00000-0  11873-3 0  9993,2 50850  53.2192 355.6439 0001363  53.1399 306.9718 15.08831909127233,6917.905,95.438,540.713,538.827,0.0
50850.0,STARLINK-3312,PAYLOAD,2024-04-19 01:07:40,15.08838559,0.0001257,53.2188,355.0451,83.3444,276.7691,0.00053298,8.204e-05,0.0,0 STARLINK-3312,1 50850U 22001AZ  24110.04699096  .00008204  00000-0  53298-3 0  9998,2 50850  53.2188 355.0451 0001257  83.3444 276.7691 15.08838559127999,6917.885,95.438,540.619,538.88,0.0
50850.0,STARLINK-3312,PAYLOAD,2024-04-19 20:12:17,15.08870035,0.0001221,53.2193,351.4812,92.5591,267.5541,0.0011315,0.0001778,0.0,0 STARLINK-3312,1 50850U 22001AZ  24110.84186520  .00017780  00000-0  11315-2 0  9991,2 50850  53.2193 351.4812 0001221  92.5591 267.5541 15.08870035128114,6917.789,95.436,540.498,538.809,0.0
50850.0,STARLINK-3312,PAYLOAD,2024-04-19 21:47:40,15.08879926,0.0001234,53.219,351.1828,92.1287,267.9846,0.0014828,0.00023415,0.0,0 STARLINK-3312,1 50850U 22001AZ  24110.90810332  .00023415  00000-0  14828-2 0  9997,2 50850  53.2190 351.1828 0001234  92.1287 267.9846 15.08879926127385,6917.758,95.435,540.477,538.77,0.0
50850.0,STARLINK-3312,PAYLOAD,2024-04-20 00:58:25,15.08892434,0.0001215,53.2188,350.5877,83.9713,276.1418,0.0017921,0.00028389,0.0,0 STARLINK-3312,1 50850U 22001AZ  24111.04057860  .00028389  00000-0  17921-2 0  9994,2 50850  53.2188 350.5877 0001215  83.9713 276.1418 15.08892434128141,6917.72,95.434,540.426,538.745,0.0
50850.0,STARLINK-3312,PAYLOAD,2024-04-20 20:03:03,15.08842567,0.0002903,53.2187,347.0139,149.3691,210.7471,0.00047261,7.242e-05,0.0,0 STARLINK-3312,1 50850U 22001AZ  24111.83545879  .00007242  00000-0  47261-3 0  9999,2 50850  53.2187 347.0139 0002903 149.3691 210.7471 15.08842567128267,6917.873,95.437,541.746,537.729,0.0
50850.0,STARLINK-3312,PAYLOAD,2024-04-20 21:38:26,15.08845335,0.0002792,53.219,346.7153,154.5132,205.5998,-0.00011229,-2.076e-05,0.0,0 STARLINK-3312,1 50850U 22001AZ  24111.90169639 -.00002076  00000-0 -11229-3 0  9990,2 50850  53.2190 346.7153 0002792 154.5132 205.5998 15.08845335127538,6917.864,95.437,541.661,537.798,0.0
50850.0,STARLINK-3312,PAYLOAD,2024-04-21 00:49:13,15.08839415,0.0001374,53.2182,346.1248,110.9043,249.2096,-0.00012682,-2.306e-05,0.0,0 STARLINK-3312,1 50850U 22001AZ  24112.03418358 -.00002306  00000-0 -12682-3 0  9990,2 50850  53.2182 346.1248 0001374 110.9043 249.2096 15.08839415127558,6917.882,95.438,540.698,538.797,0.0
50850.0,STARLINK-3312,PAYLOAD,2024-04-21 21:29:14,15.08840802,0.0001449,53.2187,342.2614,94.1475,265.9683,0.00012552,1.71e-05,0.0,0 STARLINK-3312,1 50850U 22001AZ  24112.89530871  .00001710  00000-0  12552-3 0  9991,2 50850  53.2187 342.2614 0001449  94.1475 265.9683 15.08840802127685,6917.878,95.438,540.745,538.741,0.0
50850.0,STARLINK-3312,PAYLOAD,2024-04-22 00:40:00,15.08848498,0.0001422,53.2185,341.6626,101.0736,259.0416,0.00016705,2.372e-05,0.0,0 STARLINK-3312,1 50850U 22001AZ  24113.02778497  .00002372  00000-0  16705-3 0  9994,2 50850  53.2185 341.6626 0001422 101.0736 259.0416 15.08848498128440,6917.854,95.437,540.703,538.736,0.0
50850.0,STARLINK-3312,PAYLOAD,2024-04-22 19:44:38,15.08844245,0.0001906,53.2197,338.0897,75.4836,284.6368,0.00031692,4.76e-05,0.0,0 STARLINK-3312,1 50850U 22001AZ  24113.82267123  .00004760  00000-0  31692-3 0  9996,2 50850  53.2197 338.0897 0001906  75.4836 284.6368 15.08844245128564,6917.867,95.437,541.051,538.414,0.0
50850.0,STARLINK-3312,PAYLOAD,2024-04-23 00:30:48,15.0883811,0.0001535,53.2193,337.2012,106.9965,253.1196,0.00036949,5.597e-05,0.0,0 STARLINK-3312,1 50850U 22001AZ  24114.02139232  .00005597  00000-0  36949-3 0  9997,2 50850  53.2193 337.2012 0001535 106.9965 253.1196 15.08838110127856,6917.886,95.438,540.813,538.689,0.0
50850.0,STARLINK-3312,PAYLOAD,2024-04-23 21:10:49,15.08839589,0.0001422,53.2191,333.3332,94.5533,265.5621,3.6531e-06,-2.3e-06,0.0,0 STARLINK-3312,1 50850U 22001AZ  24114.88251226 -.00000230  00000-0  36531-5 0  9998,2 50850  53.2191 333.3332 0001422  94.5533 265.5621 15.08839589128722,6917.882,95.438,540.73,538.763,0.0
50850.0,STARLINK-3312,PAYLOAD,2024-04-24 19:26:12,15.08839252,0.0001286,53.2193,329.1691,92.4132,267.7008,0.00012406,1.687e-05,0.0,0 STARLINK-3312,1 50850U 22001AZ  24115.80987114  .00001687  00000-0  12406-3 0  9992,2 50850  53.2193 329.1691 0001286  92.4132 267.7008 15.08839252128129,6917.883,95.438,540.637,538.858,0.0
50850.0,STARLINK-3312,PAYLOAD,2024-04-25 00:12:22,15.08839648,0.0001338,53.2197,328.2787,97.0607,263.0537,0.00011424,1.531e-05,0.0,0 STARLINK-3312,1 50850U 22001AZ  24116.00859146  .00001531  00000-0  11424-3 0  9995,2 50850  53.2197 328.2787 0001338  97.0607 263.0537 15.08839648128894,6917.881,95.438,540.672,538.821,0.0
50850.0,STARLINK-3312,PAYLOAD,2024-04-25 19:17:00,15.08838798,0.0001205,53.2188,324.7101,110.1412,249.971,5.4287e-05,5.76e-06,0.0,0 STARLINK-3312,1 50850U 22001AZ  24116.80347360  .00000576  00000-0  54287-4 0  9996,2 50850  53.2188 324.7101 0001205 110.1412 249.9710 15.08838798128272,6917.884,95.438,540.583,538.915,0.0
50850.0,STARLINK-3312,PAYLOAD,2024-04-26 12:46:15,15.08825841,0.0001912,53.2195,321.4408,97.5938,262.5271,-3.2286e-05,-8.02e-06,0.0,0 STARLINK-3312,1 50850U 22001AZ  24117.53212595 -.00000802  00000-0 -32286-4 0  9997,2 50850  53.2195 321.4408 0001912  97.5938 262.5271 15.08825841129123,6917.924,95.438,541.111,538.466,0.0
50850.0,STARLINK-3312,PAYLOAD,2024-04-26 20:43:10,15.08836001,0.0001174,53.2185,319.9614,111.3467,248.765,-7.6005e-05,-1.497e-05,0.0,0 STARLINK-3312,1 50850U 22001AZ  24117.86331999 -.00001497  00000-0 -76005-4 0  9991,2 50850  53.2185 319.9614 0001174 111.3467 248.7650 15.08836001129177,6917.893,95.438,540.57,538.945,0.0
50850.0,STARLINK-3312,PAYLOAD,2024-04-26 23:53:56,15.08841693,0.0001054,53.218,319.3599,96.4389,263.6723,8.5107e-05,1.067e-05,0.0,0 STARLINK-3312,1 50850U 22001AZ  24117.99579342  .00001067  00000-0  85107-4 0  9995,2 50850  53.2180 319.3599 0001054  96.4389 263.6723 15.08841693129193,6917.875,95.437,540.469,539.011,0.0
50850.0,STARLINK-3312,PAYLOAD,2024-04-27 06:15:28,15.08847281,0.0001102,53.2187,318.1717,95.674,264.4378,8.1328e-05,1.007e-05,0.0,0 STARLINK-3312,1 50850U 22001AZ  24118.26074940  .00001007  00000-0  81328-4 0  9995,2 50850  53.2187 318.1717 0001102  95.6740 264.4378 15.08847281128491,6917.858,95.437,540.485,538.961,0.0
50850.0,STARLINK-3312,PAYLOAD,2024-04-27 20:33:58,15.08834251,0.0001127,53.2193,315.4983,94.8882,265.2239,-5.463e-05,-1.157e-05,0.0,0 STARLINK-3312,1 50850U 22001AZ  24118.85692600 -.00001157  00000-0 -54630-4 0  9993,2 50850  53.2193 315.4983 0001127  94.8882 265.2239 15.08834251129329,6917.898,95.438,540.543,538.983,0.0
50850.0,STARLINK-3312,PAYLOAD,2024-04-28 12:27:49,15.08835897,0.0001406,53.2199,312.526,101.1277,258.9873,0.0001955,2.824e-05,0.0,0 STARLINK-3312,1 50850U 22001AZ  24119.51931935  .00002824  00000-0  19550-3 0  9995,2 50850  53.2199 312.5260 0001406 101.1277 258.9873 15.08835897129422,6917.893,95.438,540.731,538.785,0.0
50850.0,STARLINK-3312,PAYLOAD,2024-04-28 20:24:44,15.08842375,0.0001222,53.2182,311.0363,99.1846,260.9284,0.00019629,2.838e-05,0.0,0 STARLINK-3312,1 50850U 22001AZ  24119.85051919  .00002838  00000-0  19629-3 0  9999,2 50850  53.2182 311.0363 0001222  99.1846 260.9284 15.08842375128737,6917.873,95.437,540.583,538.893,0.0
50850.0,STARLINK-3312,PAYLOAD,2024-04-29 12:18:36,15.08827738,0.0001408,53.2184,308.0638,95.8738,264.2415,-9.12e-05,-1.739e-05,0.0,0 STARLINK-3312,1 50850U 22001AZ  24120.51292750 -.00001739  00000-0 -91200-4 0  9991,2 50850  53.2184 308.0638 0001408  95.8738 264.2415 15.08827738129571,6917.918,95.438,540.757,538.809,0.0
50850.0,STARLINK-3312,PAYLOAD,2024-04-29 21:50:55,15.08839256,0.0001238,53.2164,306.2786,98.8176,261.2957,9.3755e-05,1.205e-05,0.0,0 STARLINK-3312,1 50850U 22001AZ  24120.91036246  .00001205  00000-0  93755-4 0  9994,2 50850  53.2164 306.2786 0001238  98.8176 261.2957 15.08839256128893,6917.883,95.438,540.604,538.891,0.0
50850.0,STARLINK-3312,PAYLOAD,2024-04-30 05:47:50,15.08846853,0.0001236,53.2168,304.7919,96.7189,263.3944,0.00022282,3.261e-05,0.0,0 STARLINK-3312,1 50850U 22001AZ  24121.24155967  .00003261  00000-0  22282-3 0  9993,2 50850  53.2168 304.7919 0001236  96.7189 263.3944 15.08846853128943,6917.859,95.437,540.579,538.869,0.0
50850.0,STARLINK-3312,PAYLOAD,2024-04-30 18:30:55,15.08848991,0.000126,53.2178,302.4129,93.3269,266.7868,0.00031026,4.655e-05,0.0,0 STARLINK-3312,1 50850U 22001AZ  24121.77147931  .00004655  00000-0  31026-3 0  9997,2 50850  53.2178 302.4129 0001260  93.3269 266.7868 15.08848991129028,6917.853,95.437,540.59,538.846,0.0
50850.0,STARLINK-3312,PAYLOAD,2024-05-01 12:00:09,15.0885195,0.0001522,53.2194,299.1444,91.3191,268.7976,0.00028156,4.197e-05,0.0,0 STARLINK-3312,1 50850U 22001AZ  24122.50011568  .00004197  00000-0  28156-3 0  9996,2 50850  53.2194 299.1444 0001522  91.3191 268.7976 15.08851950129134,6917.844,95.437,540.762,538.656,0.0
